{"fetched_at":"2026-03-29T16:36:15Z","count":15609,"tles":[{"name":"STARLINK-4214","line1":"1 52877U 22062AZ  26087.86956935  .00000473  00000+0  47817-4 0  9999","line2":"2 52877  53.2167 288.0308 0001658  89.4115 270.7067 15.08839452208961","category":"Starlink"}]}