{
  "norad_id": 52877,
  "name": "STARLINK-4214",
  "history": [
    {
      "epoch": "2026-03-28T20:52:10.791840Z",
      "apogee_km": 540.892048827589,
      "perigee_km": 538.5980791351722,
      "latitude_deg": -8.203200534817834e-06,
      "longitude_deg": 148.70200532457844,
      "height_km": 540.6284973585233,
      "semi_major_axis_km": 6917.88206398138,
      "eccentricity": 0.0001658,
      "inclination_deg": 53.2167,
      "raan_deg": 288.0308,
      "arg_perigee_deg": 89.4115,
      "mean_anomaly_deg": 270.7067,
      "mean_motion_rev_day": 15.08839452
    }
  ]
}